[{"OBJECT_NAME":"STARLINK-4040","OBJECT_ID":"2022-083V","EPOCH":"2026-03-09T12:51:28.446624","MEAN_MOTION":15.0883884,"ECCENTRICITY":0.00016032,"INCLINATION":53.2186,"RA_OF_ASC_NODE":164.8127,"ARG_OF_PERICENTER":113.4944,"MEAN_ANOMALY":246.6217,"EPHEMERIS_TYPE":0,"CLASSIFICATION_TYPE":"U","NORAD_CAT_ID":53151,"ELEMENT_SET_NO":999,"REV_AT_EPOCH":20133,"BSTAR":-4.5394936e-5,"MEAN_MOTION_DOT":-1.01e-5,"MEAN_MOTION_DDOT":0},{"OBJECT_NAME":"OBJECT B","OBJECT_ID":"2025-013B","EPOCH":"2026-03-09T22:32:54.215232","MEAN_MOTION":15.10568465,"ECCENTRICITY":0.00132175,"INCLINATION":97.6475,"RA_OF_ASC_NODE":238.3035,"ARG_OF_PERICENTER":355.2799,"MEAN_ANOMALY":4.8303,"EPHEMERIS_TYPE":0,"CLASSIFICATION_TYPE":"U","NORAD_CAT_ID":62730,"ELEMENT_SET_NO":999,"REV_AT_EPOCH":6234,"BSTAR":0.00034549224,"MEAN_MOTION_DOT":5.648e-5,"MEAN_MOTION_DDOT":0}]
